SL-8 R/B                
1 15483U 85006B   26161.27656278  .00000194  00000+0  72847-4 0  9994
2 15483  74.0458  90.7804 0018619 339.1280 133.3601 14.37831940167337
SL-12 R/B(2)            
1 15772U 85042D   26161.62805789 -.00000039  00000+0  38812-5 0  9991
2 15772  71.1083 251.3738 0035931 337.7373 124.0257 14.22004770127601
SL-14 R/B               
1 15945U 85069B   26161.10129958  .00000405  00000+0  42986-4 0  9994
2 15945  82.5266 298.0304 0017378 244.2407 115.7016 14.86510038186563
SL-16 R/B               
1 16182U 85097B   26161.63377769 -.00000187  00000+0 -69537-4 0  9992
2 16182  71.0038 304.8749 0005516 124.8212 315.2985 14.16611964100396
SL-14 R/B               
1 16496U 86006B   26161.52409208  .00000520  00000+0  52506-4 0  9990
2 16496  82.5261 172.3837 0075429 325.9176  33.7208 14.86938849163006
COSMOS 1743             
1 16719U 86034A   26161.50399374  .00042188  00000+0  40623-3 0  9991
2 16719  82.5277 335.8362 0003656 302.7319  57.3588 15.66343206194749
SL-14 R/B               
1 16792U 86046B   26161.61980355  .00000347  00000+0  37177-4 0  9994
2 16792  82.4817 352.3820 0021598 281.7547  78.1246 14.85666661140203
SL-14 R/B               
1 16882U 86055B   26161.61263069  .00000360  00000+0  38565-4 0  9997
2 16882  82.5209  39.3144 0019632  28.9843  33.9319 14.85718632133169
AJISAI (EGS)            
1 16908U 86061A   26161.55960601 -.00000077  00000+0  14507-3 0  9997
2 16908  50.0061 167.7752 0011245 163.7426 307.3798 12.44516770479560
SL-14 R/B               
1 17567U 87024B   26161.61946523  .00000333  00000+0  35043-4 0  9996
2 17567  82.5281   5.4244 0017158 316.6705  43.3161 14.86208854101931
COSMOS 1833             
1 17589U 87027A   26161.31247016  .00000321  00000+0  19733-3 0  9995
2 17589  70.9163 131.3187 0022631  66.5245 293.8252 14.13044800 23409
SL-16 R/B               
1 17590U 87027B   26161.58121278  .00000041  00000+0  44155-4 0  9993
2 17590  71.0033  80.7489 0006230 320.1990  39.8676 14.17172541 28506
SL-14 R/B               
1 17912U 87038B   26161.59482007  .00000301  00000+0  32063-4 0  9998
2 17912  82.5012 209.2817 0018328 213.6649 146.3405 14.85441334 93026
COSMOS 1844             
1 17973U 87041A   26161.53073191 -.00000170  00000+0 -63078-4 0  9999
2 17973  70.8978 198.3482 0033186 245.1694 114.5976 14.14569365 16717
SL-14 R/B               
1 18153U 87055B   26161.55551105  .00000371  00000+0  39801-4 0  9991
2 18153  82.4996 261.4803 0022034  68.3286 292.0274 14.85706443 83724
COSMOS 1867             
1 18187U 87060A   26161.42657570 -.00000070  00000+0  11264-4 0  9993
2 18187  65.0115  46.9924 0016382 282.1239  77.8010 14.31515065 33219
SL-14 R/B               
1 18749U 88001B   26161.55705381  .00000375  00000+0  40497-4 0  9998
2 18749  82.5128 108.0108 0016576 293.5505  66.3970 14.85604815 55811
COSMOS 1933             
1 18958U 88020A   26161.25103884  .00002947  00000+0  14076-3 0  9998
2 18958  82.5121 159.3040 0002801 214.6797 145.4255 15.18670834 64279
SL-3 R/B                
1 19046U 88032B   26161.59771425  .00003390  00000+0  15599-3 0  9993
2 19046  97.5249 144.6450 0023635 269.7796  90.0731 15.20790728 66224
SL-16 R/B               
1 19120U 88039B   26161.63834054 -.00000024  00000+0  11607-4 0  9995
2 19120  71.0144 232.0056 0022614 202.7871 157.2253 14.19629540971577
COSMOS 1953             
1 19210U 88050A   26161.47829479  .00007434  00000+0  25533-3 0  9998
2 19210  82.5081  64.7985 0011611 146.9361 213.2608 15.29882560 51967
SL-8 R/B                
1 19257U 88053B   26161.54180711  .00000175  00000+0  64948-4 0  9998
2 19257  74.0479 301.3070 0019184  99.1137 331.3694 14.38965054989958
COSMOS 1975             
1 19573U 88093A   26161.61112330  .00006264  00000+0  21934-3 0  9995
2 19573  82.5203  24.3170 0010635 194.6516 165.4418 15.29241989 33602
SL-14 R/B               
1 19574U 88093B   26161.53946339  .00000404  00000+0  43525-4 0  9992
2 19574  82.5306 314.8863 0022200  90.9285 338.6694 14.85736763 14806
SL-16 R/B               
1 19650U 88102B   26161.57752158 -.00000180  00000+0 -66639-4 0  9990
2 19650  71.0004 316.0469 0016048 234.6776 125.2847 14.16166265940042
INTERCOSMOS 24          
1 20261U 89080A   26161.18609893  .00000791  00000+0  22354-3 0  9991
2 20261  82.6073  44.1999 1188400  78.1359 295.0272 12.59650386678441
SL-14 R/B               
1 20262U 89080C   26161.60260188  .00000347  00000+0  10340-3 0  9998
2 20262  82.5924 113.5376 1229112 332.4693  21.6124 12.50566633671768
DELTA 1 R/B             
1 20323U 89089B   26161.52888579  .00000289  00000+0  79971-4 0  9997
2 20323  97.0639 354.1526 0068656 187.9825 172.0287 14.50726862909199
ARIANE 40 R/B           
1 20443U 90005H   26161.58227367  .00000203  00000+0  78122-4 0  9991
2 20443  98.2961 219.4034 0008816 287.2285  72.7938 14.39923949906172
DELTA 2 R/B(1)          
1 20453U 90008B   26161.63398676  .00074910  00000+0  57662-3 0  9994
2 20453  35.6006 279.4677 0066393  51.8794 308.7908 15.67790061940672
