OBJECT_NAME,OBJECT_ID,EPOCH,MEAN_MOTION,ECCENTRICITY,INCLINATION,RA_OF_ASC_NODE,ARG_OF_PERICENTER,MEAN_ANOMALY,EPHEMERIS_TYPE,CLASSIFICATION_TYPE,NORAD_CAT_ID,ELEMENT_SET_NO,REV_AT_EPOCH,BSTAR,MEAN_MOTION_DOT,MEAN_MOTION_DDOT
SL-8 R/B,1985-006B,2026-06-10T06:38:15.024192,14.37831940,.00186191,74.0458,90.7804,339.1280,133.3601,0,U,15483,999,16733,.72847251E-4,.194E-5,0
SL-12 R/B(2),1985-042D,2026-06-10T15:04:24.201696,14.22004770,.00359318,71.1083,251.3738,337.7373,124.0257,0,U,15772,999,12760,.3881196E-5,-.39E-6,0
SL-14 R/B,1985-069B,2026-06-10T02:25:52.283712,14.86510038,.00173782,82.5266,298.0304,244.2407,115.7016,0,U,15945,999,18656,.4298568E-4,.405E-5,0
SL-16 R/B,1985-097B,2026-06-10T15:12:38.392416,14.16611964,.00055163,71.0038,304.8749,124.8212,315.2985,0,U,16182,999,10039,-.69536729E-4,-.187E-5,0
SL-14 R/B,1986-006B,2026-06-10T12:34:41.555712,14.86938849,.00754293,82.5261,172.3837,325.9176,33.7208,0,U,16496,999,16300,.52505982E-4,.52E-5,0
COSMOS 1743,1986-034A,2026-06-10T12:05:45.059136,15.66343206,.00036565,82.5277,335.8362,302.7319,57.3588,0,U,16719,999,19474,.40623362E-3,.42188E-3,0
SL-14 R/B,1986-046B,2026-06-10T14:52:31.026720,14.85666661,.00215988,82.4817,352.3820,281.7547,78.1246,0,U,16792,999,14020,.37176995E-4,.347E-5,0
SL-14 R/B,1986-055B,2026-06-10T14:42:11.291616,14.85718632,.00196327,82.5209,39.3144,28.9843,33.9319,0,U,16882,999,13316,.38565137E-4,.36E-5,0
AJISAI (EGS),1986-061A,2026-06-10T13:25:49.959264,12.44516770,.00112452,50.0061,167.7752,163.7426,307.3798,0,U,16908,999,47956,.14506796E-3,-.77E-6,0
SL-14 R/B,1987-024B,2026-06-10T14:52:01.795872,14.86208854,.00171582,82.5281,5.4244,316.6705,43.3161,0,U,17567,999,10193,.35043199E-4,.333E-5,0
COSMOS 1833,1987-027A,2026-06-10T07:29:57.421824,14.13044800,.00226318,70.9163,131.3187,66.5245,293.8252,0,U,17589,999,2340,.19732548E-3,.321E-5,0
SL-16 R/B,1987-027B,2026-06-10T13:56:56.784192,14.17172541,.00062305,71.0033,80.7489,320.1990,39.8676,0,U,17590,999,2850,.44154832E-4,.41E-6,0
SL-14 R/B,1987-038B,2026-06-10T14:16:32.454048,14.85441334,.00183283,82.5012,209.2817,213.6649,146.3405,0,U,17912,999,9302,.32062814E-4,.301E-5,0
COSMOS 1844,1987-041A,2026-06-10T12:44:15.237024,14.14569365,.00331867,70.8978,198.3482,245.1694,114.5976,0,U,17973,999,1671,-.63077689E-4,-.17E-5,0
SL-14 R/B,1987-055B,2026-06-10T13:19:56.154720,14.85706443,.00220341,82.4996,261.4803,68.3286,292.0274,0,U,18153,999,8372,.39800532E-4,.371E-5,0
COSMOS 1867,1987-060A,2026-06-10T10:14:16.140480,14.31515065,.00163823,65.0115,46.9924,282.1239,77.8010,0,U,18187,999,3321,.11263777E-4,-.7E-6,0
SL-14 R/B,1988-001B,2026-06-10T13:22:09.449184,14.85604815,.00165769,82.5128,108.0108,293.5505,66.3970,0,U,18749,999,5581,.40496993E-4,.375E-5,0
COSMOS 1933,1988-020A,2026-06-10T06:01:29.755776,15.18670834,.0002801,82.5121,159.3040,214.6797,145.4255,0,U,18958,999,6427,.14076E-3,.2947E-4,0
SL-3 R/B,1988-032B,2026-06-10T14:20:42.511200,15.20790728,.00236352,97.5249,144.6450,269.7796,90.0731,0,U,19046,999,6622,.15599158E-3,.339E-4,0
SL-16 R/B,1988-039B,2026-06-10T15:19:12.622656,14.19629540,.00226142,71.0144,232.0056,202.7871,157.2253,0,U,19120,999,97157,.11606612E-4,-.24E-6,0
COSMOS 1953,1988-050A,2026-06-10T11:28:44.669856,15.29882560,.00116117,82.5081,64.7985,146.9361,213.2608,0,U,19210,999,5196,.25533429E-3,.7434E-4,0
SL-8 R/B,1988-053B,2026-06-10T13:00:12.134304,14.38965054,.00191844,74.0479,301.3070,99.1137,331.3694,0,U,19257,999,98995,.64947811E-4,.175E-5,0
COSMOS 1975,1988-093A,2026-06-10T14:40:01.053120,15.29241989,.00106358,82.5203,24.3170,194.6516,165.4418,0,U,19573,999,3360,.21933768E-3,.6264E-4,0
SL-14 R/B,1988-093B,2026-06-10T12:56:49.636896,14.85736763,.00222005,82.5306,314.8863,90.9285,338.6694,0,U,19574,999,1480,.43524923E-4,.404E-5,0
SL-16 R/B,1988-102B,2026-06-10T13:51:37.864512,14.16166265,.00160481,71.0004,316.0469,234.6776,125.2847,0,U,19650,999,94004,-.66639169E-4,-.18E-5,0
INTERCOSMOS 24,1989-080A,2026-06-10T04:27:58.947552,12.59650386,.11884,82.6073,44.1999,78.1359,295.0272,0,U,20261,999,67844,.2235434E-3,.791E-5,0
SL-14 R/B,1989-080C,2026-06-10T14:27:44.802432,12.50566633,.1229112,82.5924,113.5376,332.4693,21.6124,0,U,20262,999,67176,.10339684E-3,.347E-5,0
DELTA 1 R/B,1989-089B,2026-06-10T12:41:35.732256,14.50726862,.00686563,97.0639,354.1526,187.9825,172.0287,0,U,20323,999,90919,.79970516E-4,.289E-5,0
ARIANE 40 R/B,1990-005H,2026-06-10T13:58:28.445088,14.39923949,.00088168,98.2961,219.4034,287.2285,72.7938,0,U,20443,999,90617,.78121805E-4,.203E-5,0
DELTA 2 R/B(1),1990-008B,2026-06-10T15:12:56.456064,15.67790061,.00663934,35.6006,279.4677,51.8794,308.7908,0,U,20453,999,94067,.57662348E-3,.7491E-3,0
